ELYSIUM STAR 2 & LFF    
1 43760U 18099C   24211.59337101  .00046366  00000+0  15864-2 0  9996
2 43760  97.5140 279.5471 0006901 132.3190 227.8636 15.30078128309717
